COSMOS 1933             
1 18958U 88020A   22227.56165764  .00001060  00000+0  73109-4 0  9994
2 18958  82.5275  83.2162 0011019 351.3274   8.7760 15.04779814853696
SL-3 R/B                
1 19046U 88032B   22227.47614464  .00002082  00000+0  15317-3 0  9993
2 19046  97.3943 223.8290 0037151  39.5739 320.8189 15.03887170855487
SL-16 R/B               
1 19120U 88039B   22227.37446550  .00000079  00000+0  60611-4 0  9993
2 19120  71.0153 301.4488 0021981 183.3874 176.7105 14.19255277773855
COSMOS 1953             
1 19210U 88050A   22227.48443698  .00001446  00000+0  93155-4 0  9996
2 19210  82.5189   3.3530 0010619 298.3404  61.6753 15.07559500840455
SL-8 R/B                
1 19257U 88053B   22227.40057028  .00000087  00000+0  37600-4 0  9993
2 19257  74.0503 350.1712 0019648 135.6497 280.4712 14.37619525789378
COSMOS 1975             
1 19573U 88093A   22227.30432104  .00001202  00000+0  79420-4 0  9995
2 19573  82.5207 319.5145 0012821   0.0541   0.0685 15.06452353822143
SL-14 R/B               
1 19574U 88093B   22227.39384316  .00000283  00000+0  31374-4 0  9990
2 19574  82.5335 182.2358 0022211  24.2256 138.0274 14.83532271807828
SL-16 R/B               
1 19650U 88102B   22227.38611321 -.00000121  00000+0 -36937-4 0  9997
2 19650  71.0010  10.9039 0014990 201.7673 158.2815 14.15835457742548
INTERCOSMOS 24          
1 20261U 89080A   22227.45613536  .00000494  00000+0  13829-3 0  9996
2 20261  82.5989 229.5315 1202511  66.9587 305.3648 12.56438783503064
SL-14 R/B               
1 20262U 89080C   22227.21267212  .00000134  00000+0  40740-4 0  9991
2 20262  82.5937 288.6512 1235245 278.5990  67.7370 12.49088635497457
DELTA 2 R/B(1)          
1 20303U 89085B   22227.00388200  .00012643  00000+0  31284-3 0  9990
2 20303  35.6384  75.3274 0077879  18.2779 342.0725 15.36523050789466
DELTA 1 R/B             
1 20323U 89089B   22227.55511658  .00000137  00000+0  44515-4 0  9998
2 20323  97.0767 259.7470 0069911 268.3332  90.9856 14.48548398707099
ARIANE 40 R/B           
1 20443U 90005H   22227.20443617  .00000131  00000+0  57459-4 0  9997
2 20443  98.4801 294.2557 0011154 145.3906 214.8009 14.38256083705487
DELTA 2 R/B(1)          
1 20453U 90008B   22227.46096774  .00002821  00000+0  14949-3 0  9991
2 20453  35.6220 272.8556 0262970  66.8276 295.9913 14.90320056728713
COSMOS 2058             
1 20465U 90010A   22227.08751887  .00001028  00000+0  82355-4 0  9993
2 20465  82.4863 234.0804 0016654  64.4878 295.8065 14.99011436767520
SL-14 R/B               
1 20466U 90010B   22226.97670894  .00000200  00000+0  22458-4 0  9998
2 20466  82.5013  48.7637 0018937 266.7212  93.1836 14.81572012735475
SL-14 R/B               
1 20511U 90018B   22227.40605929  .00000234  00000+0  27612-4 0  9997
2 20511  82.5253 358.2720 0018594  53.4115   0.2066 14.80225607729815
HST                     
1 20580U 90037B   22227.16532924  .00001775  00000+0  93532-4 0  9996
2 20580  28.4694 139.7101 0002406 309.7029 165.6713 15.10757998575103
SL-16 R/B               
1 20625U 90046B   22227.26229485  .00000304  00000+0  18261-3 0  9994
2 20625  70.9994 152.4803 0012692 129.0142 231.2113 14.14697874664175
COSMOS 2084             
1 20663U 90055A   22227.51756033  .00001141  00000+0  11197-3 0  9999
2 20663  62.7924  52.1826 0122467  56.0048 305.2609 14.93040116741116
SL-6 R/B(2)             
1 20666U 90055D   22227.36310649  .00000925  00000+0  91527-4 0  9999
2 20666  62.7849 327.0448 0131512  78.2657 283.3158 14.93374320743059
SL-8 R/B                
1 20775U 90078B   22227.36732101  .00003394  00000+0  15992-3 0  9990
2 20775  82.9244 293.8584 0547408 262.7425  91.1263 14.40505765619002
SL-8 R/B                
1 21088U 91006B   22227.05878081  .00000120  00000+0  10554-3 0  9997
2 21088  82.9398  58.8799 0023959  83.6629  68.7092 13.77205359584751
OKEAN-3                 
1 21397U 91039A   22227.24428905  .00001062  00000+0  97374-4 0  9995
2 21397  82.5235 146.6020 0018930  51.5655 308.7261 14.93819999669950
COSMOS 2151             
1 21422U 91042A   22227.11351021  .00000614  00000+0  56854-4 0  9998
2 21422  82.4976 251.8523 0015558 115.0201 245.2636 14.92755973668436
SL-14 R/B               
1 21423U 91042B   22227.40704600  .00000246  00000+0  29376-4 0  9996
2 21423  82.4962 359.4630 0017280 189.5677 170.5209 14.79969747660342
ERS-1                   
1 21574U 91050A   22227.35725359  .00000081  00000+0  41474-4 0  9990
2 21574  98.7019 196.9186 0034012 102.8547 257.6443 14.37922280628489
ARIANE 40 R/B           
1 21610U 91050F   22227.21087168  .00000132  00000+0  54497-4 0  9991
2 21610  98.3778 295.5686 0004192  62.4766 297.6848 14.41091737631294
INTERCOSMOS 25          
1 21819U 91086A   22227.36811185  .00000748  00000+0  14525-3 0  9991
2 21819  82.5944  13.3258 1513857  30.2888 337.7492 12.05905632339335
SL-8 R/B                
1 21876U 92008B   22227.31452632  .00000076  00000+0  62999-4 0  9995
2 21876  82.9295 156.0832 0034842 169.1866 302.8015 13.75713728530331
SL-8 R/B                
1 21938U 92020B   22227.45855135  .00000130  00000+0  11991-3 0  9994
2 21938  82.9292  40.7772 0028584 334.6186  44.0420 13.75305871522128
COSMOS 2219             
1 22219U 92076A   22227.46624932 -.00000159  00000+0 -59192-4 0  9997
2 22219  71.0566 219.4181 0017067  23.2693 336.9198 14.13693689534310
SL-16 R/B               
1 22220U 92076B   22227.51989764 -.00000238  00000+0 -95073-4 0  9998
2 22220  71.0003  50.5133 0015167 278.6667 112.0632 14.16504787537418
COSMOS 2221             
1 22236U 92080A   22227.55423068  .00000639  00000+0  65950-4 0  9998
2 22236  82.5053  77.8010 0015497 217.8554 142.1575 14.88571506586628
SL-16 R/B               
1 22285U 92093B   22227.40569292 -.00000273  00000+0 -11605-3 0  9993
2 22285  71.0196 217.3129 0002841 166.8384 193.2814 14.15094128528908
COSMOS 2228             
1 22286U 92094A   22227.45300702  .00000752  00000+0  77351-4 0  9990
2 22286  82.5192  35.0610 0020313 343.5915  16.4643 14.88833878581807
SL-16 R/B               
1 22566U 93016B   22227.54953497 -.00000137  00000+0 -45917-4 0  9993
2 22566  71.0066  69.3317 0009297 156.3660 203.7892 14.15004719517956
COSMOS 2242             
1 22626U 93024A   22227.04170241  .00000630  00000+0  64715-4 0  9995
2 22626  82.5191  63.9219 0018315 346.0314  14.0394 14.88658762586123
SL-16 R/B               
1 22803U 93059B   22227.43479901  .00000078  00000+0  62892-4 0  9998
2 22803  70.9875 236.5017 0016084  27.5349 332.6622 14.16869851495052
ARIANE 40 R/B           
1 22830U 93061H   22227.23019087  .00000082  00000+0  47331-4 0  9990
2 22830  98.6599 289.8955 0011353 161.4989 198.6609 14.31575308507671
COSMOS 2278             
1 23087U 94023A   22227.40342341 -.00000019  00000+0  14826-4 0  9999
2 23087  71.0538  18.5387 0010336 225.3727 134.6553 14.13870642460709
SL-16 R/B               
1 23088U 94023B   22227.35878162 -.00000017  00000+0  16003-4 0  9996
2 23088  70.9985 285.2246 0001752 153.0855 207.0358 14.14712863461881
SL-16 R/B               
1 23343U 94074B   22227.18846899  .00000184  00000+0  33186-4 0  9994
2 23343  97.8886 278.8420 0008073 121.1356 289.7059 14.77069600494839
SL-16 R/B               
1 23405U 94077B   22227.42054417  .00000236  00000+0  14598-3 0  9993
2 23405  70.9811 211.5014 0003886 310.2337  49.8445 14.15263892431968
ERS-2                   
1 23560U 95021A   22227.34593412  .00004455  00000+0  16986-3 0  9999
2 23560  98.4993 140.8906 0003298  23.9206 336.2182 15.27341155462306
ARIANE 40+ R/B          
1 23561U 95021B   22227.19821177  .00000131  00000+0  57814-4 0  9998
2 23561  98.6192 284.7272 0008053  75.4769 350.5074 14.38175656431930
SL-16 R/B               
1 23705U 95058B   22226.86502543  .00000263  00000+0  15959-3 0  9993
2 23705  71.0226  34.7218 0014215 300.3000  59.6716 14.15178495383510
SL-16 R/B               
1 24298U 96051B   22227.44959969  .00000076  00000+0  67503-4 0  9993
2 24298  70.8206  46.3132 0019133 259.0973 100.7994 14.12424274337768
ORBVIEW 2 (SEASTAR)     
1 24883U 97037A   22227.33706847  .00000149  00000+0  69753-4 0  9991
2 24883  98.6875 350.9147 0001339 318.3904  41.7178 14.33766695321748
SL-16 R/B               
1 25400U 98043G   22227.38589011  .00000023  00000+0  28442-4 0  9993
2 25400  98.6731 162.8682 0009567 191.3681 168.7283 14.25523427253411
SL-16 R/B               
1 25407U 98045B   22226.94099049  .00000180  00000+0  11590-3 0  9999
2 25407  71.0117  40.4284 0008810 223.7011 136.3415 14.15868791242687
ISS (ZARYA)             
1 25544U 98067A   22227.72334491  .00005548  00000+0  10443-3 0  9994
2 25544  51.6425  41.6453 0005584 125.2007  46.5335 15.50188509354412
CZ-4B R/B               
1 25732U 99025C   22227.16025906  .00000027  00000+0  34909-4 0  9995
2 25732  98.8503 268.3163 0038316 119.0403 291.4962 14.17739659203574
OKEAN-O                 
1 25860U 99039A   22227.12412875  .00000261  00000+0  44497-4 0  9996
2 25860  98.1351 267.4811 0001081 114.8089 245.3233 14.76993349241914
SL-16 R/B               
1 25861U 99039B   22227.54460912  .00000242  00000+0  40267-4 0  9998
2 25861  98.1764 255.5149 0016449 139.2988 220.9455 14.78869184244232
DELTA 2 R/B             
1 25876U 99041E   22227.07251605  .00001021  00000+0  21287-3 0  9998
2 25876  51.7637  75.9774 0530087 124.9067 240.2866 14.05144494179461
HELIOS 1B               
1 25977U 99064A   22227.51649606  .00000278  00000+0  41519-4 0  9990
2 25977  98.3203  64.1079 0001163  30.0650 330.0629 14.82833928492038
TERRA                   
1 25994U 99068A   22227.53883669  .00000209  00000+0  56358-4 0  9995
2 25994  98.1338 298.0949 0001634  90.2292  22.0786 14.57136774205100
SL-16 R/B               
1 26070U 00006B   22227.39618106 -.00000207  00000+0 -81438-4 0  9998
2 26070  71.0039 315.3487 0016766 355.5443   4.5528 14.15496125164253
